{
  "type": "FeatureCollection",
  "features": [
    {
      "type": "Feature",
      "properties": {
        "norad_id": 34570,
        "name": "COSMOS 2251 DEB",
        "group": "cosmos-2251-debris",
        "lat": 29.084258976281536,
        "lon": 45.65817523989479,
        "alt_km": 772.1700480438212,
        "timestamp": "2025-12-03T04:52:30.033286+00:00",
        "meta_object_name": "COSMOS 2251 DEB",
        "meta_object_id": "1993-036VG",
        "meta_epoch": "2025-12-01T04:52:12.097056",
        "meta_mean_motion": 13.99791144,
        "meta_eccentricity": 0.0190354,
        "meta_inclination": 73.9581,
        "meta_ra_of_asc_node": 238.3445,
        "meta_arg_of_pericenter": 123.4106,
        "meta_mean_anomaly": 29.376,
        "meta_ephemeris_type": 0,
        "meta_classification_type": "U",
        "meta_norad_cat_id": 34570,
        "meta_element_set_no": 999,
        "meta_rev_at_epoch": 85439,
        "meta_bstar": 0.00050145,
        "meta_mean_motion_dot": 8.36e-06,
        "meta_mean_motion_ddot": 0,
        "tle_line1": "1 34570U 93036VG  25335.20291779  .00000836  00000+0  50145-3 0  9999",
        "tle_line2": "2 34570  73.9581 238.3445 0190354 123.4106  29.3760 13.99791144854396"
      },
      "geometry": {
        "type": "Point",
        "coordinates": [
          45.65817523989479,
          29.084258976281536
        ]
      }
    },
    {
      "type": "Feature",
      "properties": {
        "norad_id": 34571,
        "name": "COSMOS 2251 DEB",
        "group": "cosmos-2251-debris",
        "lat": 55.0914673773912,
        "lon": -3.914311693243588,
        "alt_km": 745.4953793053946,
        "timestamp": "2025-12-03T04:52:30.033296+00:00",
        "meta_object_name": "COSMOS 2251 DEB",
        "meta_object_id": "1993-036VH",
        "meta_epoch": "2025-12-02T01:47:25.662048",
        "meta_mean_motion": 14.48552356,
        "meta_eccentricity": 0.00671924,
        "meta_inclination": 74.0386,
        "meta_ra_of_asc_node": 202.4121,
        "meta_arg_of_pericenter": 239.9116,
        "meta_mean_anomaly": 119.5371,
        "meta_ephemeris_type": 0,
        "meta_classification_type": "U",
        "meta_norad_cat_id": 34571,
        "meta_element_set_no": 999,
        "meta_rev_at_epoch": 87139,
        "meta_bstar": 0.0021114051,
        "meta_mean_motion_dot": 8.143e-05,
        "meta_mean_motion_ddot": 0,
        "tle_line1": "1 34571U 93036VH  25336.07460257  .00008143  00000+0  21114-2 0  9997",
        "tle_line2": "2 34571  74.0386 202.4121 0067192 239.9116 119.5371 14.48552356871396"
      },
      "geometry": {
        "type": "Point",
        "coordinates": [
          -3.914311693243588,
          55.0914673773912
        ]
      }
    },
    {
      "type": "Feature",
      "properties": {
        "norad_id": 34572,
        "name": "COSMOS 2251 DEB",
        "group": "cosmos-2251-debris",
        "lat": -51.38675364470276,
        "lon": 112.39714984185743,
        "alt_km": 738.5858800682317,
        "timestamp": "2025-12-03T04:52:30.033306+00:00",
        "meta_object_name": "COSMOS 2251 DEB",
        "meta_object_id": "1993-036VJ",
        "meta_epoch": "2025-12-02T12:52:02.117568",
        "meta_mean_motion": 14.49646773,
        "meta_eccentricity": 0.00640807,
        "meta_inclination": 74.0087,
        "meta_ra_of_asc_node": 134.693,
        "meta_arg_of_pericenter": 210.1075,
        "meta_mean_anomaly": 215.4129,
        "meta_ephemeris_type": 0,
        "meta_classification_type": "U",
        "meta_norad_cat_id": 34572,
        "meta_element_set_no": 999,
        "meta_rev_at_epoch": 87230,
        "meta_bstar": 0.0035968156,
        "meta_mean_motion_dot": 0.00014195,
        "meta_mean_motion_ddot": 0,
        "tle_line1": "1 34572U 93036VJ  25336.53613562  .00014195  00000+0  35968-2 0  9994",
        "tle_line2": "2 34572  74.0087 134.6930 0064080 210.1075 215.4129 14.49646773872304"
      },
      "geometry": {
        "type": "Point",
        "coordinates": [
          112.39714984185743,
          -51.38675364470276
        ]
      }
    },
    {
      "type": "Feature",
      "properties": {
        "norad_id": 34574,
        "name": "COSMOS 2251 DEB",
        "group": "cosmos-2251-debris",
        "lat": -23.111681115349043,
        "lon": -111.39565332465668,
        "alt_km": 686.8156131384494,
        "timestamp": "2025-12-03T04:52:30.033317+00:00",
        "meta_object_name": "COSMOS 2251 DEB",
        "meta_object_id": "1993-036VL",
        "meta_epoch": "2025-12-02T17:05:54.174048",
        "meta_mean_motion": 14.70412823,
        "meta_eccentricity": 0.0067053,
        "meta_inclination": 74.0697,
        "meta_ra_of_asc_node": 62.5525,
        "meta_arg_of_pericenter": 86.9662,
        "meta_mean_anomaly": 39.9345,
        "meta_ephemeris_type": 0,
        "meta_classification_type": "U",
        "meta_norad_cat_id": 34574,
        "meta_element_set_no": 999,
        "meta_rev_at_epoch": 88631,
        "meta_bstar": 0.0013189,
        "meta_mean_motion_dot": 8.245e-05,
        "meta_mean_motion_ddot": 0,
        "tle_line1": "1 34574U 93036VL  25336.71243257  .00008245  00000+0  13189-2 0  9996",
        "tle_line2": "2 34574  74.0697  62.5525 0067053  86.9662  39.9345 14.70412823886312"
      },
      "geometry": {
        "type": "Point",
        "coordinates": [
          -111.39565332465668,
          -23.111681115349043
        ]
      }
    },
    {
      "type": "Feature",
      "properties": {
        "norad_id": 34576,
        "name": "COSMOS 2251 DEB",
        "group": "cosmos-2251-debris",
        "lat": -26.319938591433075,
        "lon": 148.11943004709013,
        "alt_km": 709.651245993904,
        "timestamp": "2025-12-03T04:52:30.033327+00:00",
        "meta_object_name": "COSMOS 2251 DEB",
        "meta_object_id": "1993-036VN",
        "meta_epoch": "2025-12-02T14:26:43.376352",
        "meta_mean_motion": 14.55304418,
        "meta_eccentricity": 0.00078388,
        "meta_inclination": 74.0326,
        "meta_ra_of_asc_node": 157.4001,
        "meta_arg_of_pericenter": 290.7007,
        "meta_mean_anomaly": 133.2398,
        "meta_ephemeris_type": 0,
        "meta_classification_type": "U",
        "meta_norad_cat_id": 34576,
        "meta_element_set_no": 999,
        "meta_rev_at_epoch": 88319,
        "meta_bstar": 0.0010194275,
        "meta_mean_motion_dot": 4.395e-05,
        "meta_mean_motion_ddot": 0,
        "tle_line1": "1 34576U 93036VN  25336.60189093  .00004395  00000+0  10194-2 0  9998",
        "tle_line2": "2 34576  74.0326 157.4001 0007838 290.7007 133.2398 14.55304418883191"
      },
      "geometry": {
        "type": "Point",
        "coordinates": [
          148.11943004709013,
          -26.319938591433075
        ]
      }
    },
    {
      "type": "Feature",
      "properties": {
        "norad_id": 34577,
        "name": "COSMOS 2251 DEB",
        "group": "cosmos-2251-debris",
        "lat": -43.52211472089811,
        "lon": 19.957085412850393,
        "alt_km": 295.8350840193352,
        "timestamp": "2025-12-03T04:52:30.033337+00:00",
        "meta_object_name": "COSMOS 2251 DEB",
        "meta_object_id": "1993-036VP",
        "meta_epoch": "2025-12-02T20:23:47.510880",
        "meta_mean_motion": 15.92378557,
        "meta_eccentricity": 0.0006177,
        "meta_inclination": 73.987,
        "meta_ra_of_asc_node": 184.9572,
        "meta_arg_of_pericenter": 141.1239,
        "meta_mean_anomaly": 219.0441,
        "meta_ephemeris_type": 0,
        "meta_classification_type": "U",
        "meta_norad_cat_id": 34577,
        "meta_element_set_no": 999,
        "meta_rev_at_epoch": 89371,
        "meta_bstar": 0.0077782,
        "meta_mean_motion_dot": 0.02483883,
        "meta_mean_motion_ddot": 0.0042105,
        "tle_line1": "1 34577U 93036VP  25336.84985545  .02483883  42105-2  77782-2 0  9997",
        "tle_line2": "2 34577  73.9870 184.9572 0006177 141.1239 219.0441 15.92378557893711"
      },
      "geometry": {
        "type": "Point",
        "coordinates": [
          19.957085412850393,
          -43.52211472089811
        ]
      }
    },
    {
      "type": "Feature",
      "properties": {
        "norad_id": 34579,
        "name": "COSMOS 2251 DEB",
        "group": "cosmos-2251-debris",
        "lat": 3.4087219579164256,
        "lon": 60.67020370881677,
        "alt_km": 757.2407419963502,
        "timestamp": "2025-12-03T04:52:30.033347+00:00",
        "meta_object_name": "COSMOS 2251 DEB",
        "meta_object_id": "1993-036VR",
        "meta_epoch": "2025-12-02T20:03:46.783296",
        "meta_mean_motion": 14.45257305,
        "meta_eccentricity": 0.0027508,
        "meta_inclination": 74.053,
        "meta_ra_of_asc_node": 242.3293,
        "meta_arg_of_pericenter": 312.4212,
        "meta_mean_anomaly": 114.5713,
        "meta_ephemeris_type": 0,
        "meta_classification_type": "U",
        "meta_norad_cat_id": 34579,
        "meta_element_set_no": 999,
        "meta_rev_at_epoch": 88031,
        "meta_bstar": 0.0005894,
        "meta_mean_motion_dot": 2.051e-05,
        "meta_mean_motion_ddot": 0,
        "tle_line1": "1 34579U 93036VR  25336.83595814  .00002051  00000+0  58940-3 0  9997",
        "tle_line2": "2 34579  74.0530 242.3293 0027508 312.4212 114.5713 14.45257305880319"
      },
      "geometry": {
        "type": "Point",
        "coordinates": [
          60.67020370881677,
          3.4087219579164256
        ]
      }
    }
  ]
}